[{"OBJECT_NAME":"STARLINK-31683","OBJECT_ID":"2024-076K","EPOCH":"2026-03-09T03:55:35.106528","MEAN_MOTION":15.27573131,"ECCENTRICITY":0.00011707,"INCLINATION":43.0049,"RA_OF_ASC_NODE":11.8462,"ARG_OF_PERICENTER":281.5522,"MEAN_ANOMALY":78.5198,"EPHEMERIS_TYPE":0,"CLASSIFICATION_TYPE":"U","NORAD_CAT_ID":59573,"ELEMENT_SET_NO":999,"REV_AT_EPOCH":10642,"BSTAR":-2.0415594e-5,"MEAN_MOTION_DOT":-8.24e-6,"MEAN_MOTION_DDOT":0},{"OBJECT_NAME":"CZ-6A DEB","OBJECT_ID":"2022-151NB","EPOCH":"2026-03-09T18:26:17.609568","MEAN_MOTION":15.22372787,"ECCENTRICITY":0.00267955,"INCLINATION":98.6489,"RA_OF_ASC_NODE":154.0342,"ARG_OF_PERICENTER":180.4296,"MEAN_ANOMALY":179.6918,"EPHEMERIS_TYPE":0,"CLASSIFICATION_TYPE":"U","NORAD_CAT_ID":54601,"ELEMENT_SET_NO":999,"REV_AT_EPOCH":17694,"BSTAR":0.011449911,"MEAN_MOTION_DOT":0.00276508,"MEAN_MOTION_DDOT":0}]
